NORAD_CAT_ID,OBJECT_NAME,OBJECT_TYPE,EPOCH,MEAN_MOTION,ECCENTRICITY,INCLINATION,RA_OF_ASC_NODE,ARG_OF_PERICENTER,MEAN_ANOMALY,BSTAR,MEAN_MOTION_DOT,MEAN_MOTION_DDOT,TLE_LINE0,TLE_LINE1,TLE_LINE2,SEMIMAJOR_AXIS,PERIOD,APOGEE,PERIGEE,DECAYED
49452.0,STARLINK-3150,PAYLOAD,2022-07-06 05:52:18,15.08831773,0.0003443,53.2175,125.5861,52.6038,307.5267,2.1514e-05,5.4e-07,0.0,0 STARLINK-3150,1 49452U 21104AW  22187.24466032  .00000054  00000-0  21514-4 0  9995,2 49452  53.2175 125.5861 0003443  52.6038 307.5267 15.08831773 36119,6917.906,95.438,542.1519999999998,537.389,0.0
49452.0,STARLINK-3150,PAYLOAD,2022-07-06 20:10:47,15.08831245,0.0003489,53.2178,122.91,54.6628,305.469,4.9939e-06,-2.09e-06,0.0,0 STARLINK-3150,1 49452U 21104AW  22187.84082432 -.00000209  00000-0  49939-5 0  9994,2 49452  53.2178 122.9100 0003489  54.6628 305.4690 15.08831245 36207,6917.906999999997,95.438,542.186,537.3580000000002,0.0
49452.0,STARLINK-3150,PAYLOAD,2022-07-07 05:43:05,15.08839218,0.0003416,53.2182,121.1241,59.9441,300.189,2.8568e-05,1.66e-06,0.0,0 STARLINK-3150,1 49452U 21104AW  22188.23825924  .00000166  00000-0  28568-4 0  9994,2 49452  53.2182 121.1241 0003416  59.9441 300.1890 15.08839218 36268,6917.8830000000025,95.438,542.111,537.385,0.0
49452.0,STARLINK-3150,PAYLOAD,2022-07-07 20:01:33,15.08860333,0.0003367,53.2182,118.448,61.3378,298.7952,-0.00016272,-2.879e-05,0.0,0 STARLINK-3150,1 49452U 21104AW  22188.83441397 -.00002879  00000-0 -16272-3 0  9991,2 49452  53.2182 118.4480 0003367  61.3378 298.7952 15.08860333 36356,6917.818,95.436,542.012,537.354,0.0
49452.0,STARLINK-3150,PAYLOAD,2022-07-08 05:33:52,15.08855394,0.0003356,53.2183,116.6637,61.9408,298.1923,-0.00015803,-2.804e-05,0.0,0 STARLINK-3150,1 49452U 21104AW  22189.23185366 -.00002804  00000-0 -15803-3 0  9994,2 49452  53.2183 116.6637 0003356  61.9408 298.1923 15.08855394 37498,6917.833000000001,95.437,542.02,537.377,0.0
49452.0,STARLINK-3150,PAYLOAD,2022-07-08 11:55:24,15.08840569,0.0003406,53.2184,115.4745,62.3122,297.8216,9.829e-05,1.276e-05,0.0,0 STARLINK-3150,1 49452U 21104AW  22189.49681520  .00001276  00000-0  98290-4 0  9997,2 49452  53.2184 115.4745 0003406  62.3122 297.8216 15.08840569 36454,6917.879,95.438,542.1,537.387,0.0
49452.0,STARLINK-3150,PAYLOAD,2022-07-08 19:52:20,15.088392,0.0003468,53.2191,113.9883,65.2427,294.8926,1.662e-05,-2.4e-07,0.0,0 STARLINK-3150,1 49452U 21104AW  22189.82801945 -.00000024  00000-0  16620-4 0  9997,2 49452  53.2191 113.9883 0003468  65.2427 294.8926 15.08839200 36507,6917.8830000000025,95.438,542.1469999999998,537.349,0.0
49452.0,STARLINK-3150,PAYLOAD,2022-07-09 11:46:13,15.0882744,0.0003232,53.2185,111.0145,63.1033,297.0289,-0.0001037,-1.938e-05,0.0,0 STARLINK-3150,1 49452U 21104AW  22190.49043554 -.00001938  00000-0 -10370-3 0  9997,2 49452  53.2185 111.0145 0003232  63.1033 297.0289 15.08827440 36600,6917.919,95.438,542.02,537.548,0.0
49452.0,STARLINK-3150,PAYLOAD,2022-07-10 02:04:41,15.08828453,0.0003226,53.2186,108.3382,64.5058,295.6267,-8.1652e-06,-4.19e-06,0.0,0 STARLINK-3150,1 49452U 21104AW  22191.08659543 -.00000419  00000-0 -81652-5 0  9990,2 49452  53.2186 108.3382 0003226  64.5058 295.6267 15.08828453 37772,6917.916,95.438,542.012,537.549,0.0
49452.0,STARLINK-3150,PAYLOAD,2022-07-10 03:40:04,15.08831683,0.0003213,53.2185,108.04,63.1773,296.9548,1.152e-06,-2.7000000000000004e-06,0.0,0 STARLINK-3150,1 49452U 21104AW  22191.15283344 -.00000270  00000-0  11520-5 0  9991,2 49452  53.2185 108.0400 0003213  63.1773 296.9548 15.08831683 36701,6917.906,95.438,541.994,537.548,0.0
49452.0,STARLINK-3150,PAYLOAD,2022-07-10 17:58:32,15.0885967,0.0003234,53.2188,105.3638,63.4014,296.731,-0.00025911,-4.413e-05,0.0,0 STARLINK-3150,1 49452U 21104AW  22191.74898414 -.00004413  00000-0 -25911-3 0  9997,2 49452  53.2188 105.3638 0003234  63.4014 296.7310 15.08859670 37871,6917.82,95.436,541.922,537.448,0.0
49452.0,STARLINK-3150,PAYLOAD,2022-07-11 11:27:47,15.08834959,0.0003168999999999,53.2182,102.0935,65.6219,294.5104,0.00015352,2.155e-05,0.0,0 STARLINK-3150,1 49452U 21104AW  22192.47763011  .00002155  00000-0  15352-3 0  9999,2 49452  53.2182 102.0935 0003169  65.6219 294.5104 15.08834959 36900,6917.896,95.438,541.953,537.569,0.0
49452.0,STARLINK-3150,PAYLOAD,2022-07-11 17:49:19,15.08836062,0.0003199,53.2178,100.9038,66.8433,293.2896,0.00011775,1.586e-05,0.0,0 STARLINK-3150,1 49452U 21104AW  22192.74259133  .00001586  00000-0  11775-3 0  9996,2 49452  53.2178 100.9038 0003199  66.8433 293.2896 15.08836062 36945,6917.892,95.438,541.97,537.544,0.0
49452.0,STARLINK-3150,PAYLOAD,2022-07-12 11:18:33,15.08848651,0.0003199,53.2182,97.6329,67.9647,292.1684,9.5313e-05,1.229e-05,0.0,0 STARLINK-3150,1 49452U 21104AW  22193.47122304  .00001229  00000-0  95313-4 0  9991,2 49452  53.2182  97.6329 0003199  67.9647 292.1684 15.08848651 37057,6917.854,95.437,541.932,537.506,0.0
49452.0,STARLINK-3150,PAYLOAD,2022-07-12 17:40:06,15.08850437,0.0003225,53.2183,96.4435,68.593,291.5406,4.8253e-05,4.8e-06,0.0,0 STARLINK-3150,1 49452U 21104AW  22193.73618209  .00000480  00000-0  48253-4 0  9993,2 49452  53.2183  96.4435 0003225  68.5930 291.5406 15.08850437 38179,6917.848000000001,95.437,541.944,537.482,0.0
49452.0,STARLINK-3150,PAYLOAD,2022-07-12 20:50:52,15.08851115,0.0003221,53.2183,95.8487,68.9172,291.2164,5.314e-05,5.57e-06,0.0,0 STARLINK-3150,1 49452U 21104AW  22193.86866057  .00000557  00000-0  53140-4 0  9999,2 49452  53.2183  95.8487 0003221  68.9172 291.2164 15.08851115 37112,6917.846,95.437,541.94,537.4830000000002,0.0
49452.0,STARLINK-3150,PAYLOAD,2022-07-13 03:12:24,15.08854916,0.0003133,53.2183,94.6585,71.3349,288.7983,4.4255e-05,4.16e-06,0.0,0 STARLINK-3150,1 49452U 21104AW  22194.13361593  .00000416  00000-0  44255-4 0  9996,2 49452  53.2183  94.6585 0003133  71.3349 288.7983 15.08854916 37150,6917.835,95.437,541.867,537.5319999999998,0.0
49452.0,STARLINK-3150,PAYLOAD,2022-07-13 15:55:29,15.08846114,0.0003125,53.2183,92.2794,73.0001,287.1333,1.6621e-05,-2.4e-07,0.0,0 STARLINK-3150,1 49452U 21104AW  22194.66353853 -.00000024  00000-0  16621-4 0  9996,2 49452  53.2183  92.2794 0003125  73.0001 287.1333 15.08846114 37233,6917.861999999999,95.437,541.889,537.565,0.0
49452.0,STARLINK-3150,PAYLOAD,2022-07-14 01:27:50,15.08824907,0.000285,53.2187,90.4956,69.4011,290.7286,-0.00018088,-3.165e-05,0.0,0 STARLINK-3150,1 49452U 21104AW  22195.06099966 -.00003165  00000-0 -18088-3 0  9991,2 49452  53.2187  90.4956 0002850  69.4011 290.7286 15.08824907 38370,6917.927,95.439,541.763,537.82,0.0
49452.0,STARLINK-3150,PAYLOAD,2022-07-14 03:03:13,15.08824126,0.0002856,53.2188,90.1984,69.3099,290.8199,-0.00018387,-3.213e-05,0.0,0 STARLINK-3150,1 49452U 21104AW  22195.12724072 -.00003213  00000-0 -18387-3 0  9997,2 49452  53.2188  90.1984 0002856  69.3099 290.8199 15.08824126 37309,6917.929,95.439,541.77,537.818,0.0
49452.0,STARLINK-3150,PAYLOAD,2022-07-14 15:46:18,15.08827688,0.0002859,53.2183,87.8201,69.1752,290.9546,-0.00013447,-2.427e-05,0.0,0 STARLINK-3150,1 49452U 21104AW  22195.65716055 -.00002427  00000-0 -13447-3 0  9995,2 49452  53.2183  87.8201 0002859  69.1752 290.9546 15.08827688 38467,6917.918000000002,95.438,541.761,537.805,0.0
49452.0,STARLINK-3150,PAYLOAD,2022-07-14 20:32:27,15.08831946,0.0002845,53.2183,86.9281,69.6891,290.4407,-9.5062e-05,-1.801e-05,0.0,0 STARLINK-3150,1 49452U 21104AW  22195.85587767 -.00001801  00000-0 -95062-4 0  9992,2 49452  53.2183  86.9281 0002845  69.6891 290.4407 15.08831946 37416,6917.905,95.438,541.738,537.802,0.0
49452.0,STARLINK-3150,PAYLOAD,2022-07-14 23:43:13,15.08834132,0.0002869,53.2183,86.3334,69.6372,290.4928,-6.8504e-05,-1.379e-05,0.0,0 STARLINK-3150,1 49452U 21104AW  22195.98835614 -.00001379  00000-0 -68504-4 0  9994,2 49452  53.2183  86.3334 0002869  69.6372 290.4928 15.08834132 38519,6917.898,95.438,541.748,537.779,0.0
49452.0,STARLINK-3150,PAYLOAD,2022-07-15 09:15:32,15.08842398,0.0002812,53.2188,84.5495,68.9571,291.1721,-4.8866e-05,-1.066e-05,0.0,0 STARLINK-3150,1 49452U 21104AW  22196.38579134 -.00001066  00000-0 -48866-4 0  9993,2 49452  53.2188  84.5495 0002812  68.9571 291.1721 15.08842398 38571,6917.873000000001,95.437,541.683,537.793,0.0
49452.0,STARLINK-3150,PAYLOAD,2022-07-15 20:23:14,15.08833183,0.0002737,53.2187,82.4679,68.6029,291.5255,0.0002338,3.434e-05,0.0,0 STARLINK-3150,1 49452U 21104AW  22196.84946894  .00003434  00000-0  23380-3 0  9997,2 49452  53.2187  82.4679 0002737  68.6029 291.5255 15.08833183 37568,6917.901,95.438,541.66,537.873,0.0
49452.0,STARLINK-3150,PAYLOAD,2022-07-16 01:09:24,15.088277599999998,0.000274,53.2183,81.5766,68.5825,291.5459,0.00018281,2.621e-05,0.0,0 STARLINK-3150,1 49452U 21104AW  22197.04819599  .00002621  00000-0  18281-3 0  9992,2 49452  53.2183  81.5766 0002740  68.5825 291.5459 15.08827760 38671,6917.918000000002,95.438,541.678,537.887,0.0
49452.0,STARLINK-3150,PAYLOAD,2022-07-16 09:06:19,15.08827712,0.0002713,53.2179,80.0899,68.6,291.5281,0.00020928,3.043e-05,0.0,0 STARLINK-3150,1 49452U 21104AW  22197.37939783  .00003043  00000-0  20928-3 0  9996,2 49452  53.2179  80.0899 0002713  68.6000 291.5281 15.08827712 37649,6917.918000000002,95.438,541.66,537.906,0.0
49452.0,STARLINK-3150,PAYLOAD,2022-07-16 20:14:01,15.08839013,0.0002706,53.2185,78.0081,70.7751,289.3534,0.00010718,1.418e-05,0.0,0 STARLINK-3150,1 49452U 21104AW  22197.84307567  .00001418  00000-0  10718-3 0  9997,2 49452  53.2185  78.0081 0002706  70.7751 289.3534 15.08839013 37716,6917.8830000000025,95.438,541.62,537.876,0.0
49452.0,STARLINK-3150,PAYLOAD,2022-07-16 23:24:48,15.08835894,0.0002671,53.2188,77.413,70.3968,289.7312,7.7065e-05,9.38e-06,0.0,0 STARLINK-3150,1 49452U 21104AW  22197.97555885  .00000938  00000-0  77065-4 0  9994,2 49452  53.2188  77.4130 0002671  70.3968 289.7312 15.08835894 37737,6917.893,95.438,541.606,537.91,0.0
